[{"OBJECT_NAME":"TIANHUI 6B","OBJECT_ID":"2023-030D","EPOCH":"2026-03-09T23:26:56.388192","MEAN_MOTION":14.01332355,"ECCENTRICITY":0.00011349,"INCLINATION":99.0142,"RA_OF_ASC_NODE":78.4435,"ARG_OF_PERICENTER":126.6393,"MEAN_ANOMALY":233.4876,"EPHEMERIS_TYPE":0,"CLASSIFICATION_TYPE":"U","NORAD_CAT_ID":55839,"ELEMENT_SET_NO":999,"REV_AT_EPOCH":15349,"BSTAR":-9.0839833e-5,"MEAN_MOTION_DOT":-1.81e-6,"MEAN_MOTION_DDOT":0},{"OBJECT_NAME":"OBJECT B","OBJECT_ID":"2023-048B","EPOCH":"2026-03-09T22:56:24.144864","MEAN_MOTION":13.68535282,"ECCENTRICITY":0.02112785,"INCLINATION":63.4048,"RA_OF_ASC_NODE":240.3294,"ARG_OF_PERICENTER":25.8652,"MEAN_ANOMALY":335.2767,"EPHEMERIS_TYPE":0,"CLASSIFICATION_TYPE":"U","NORAD_CAT_ID":56158,"ELEMENT_SET_NO":999,"REV_AT_EPOCH":14706,"BSTAR":6.861096e-5,"MEAN_MOTION_DOT":-2.7e-7,"MEAN_MOTION_DDOT":0}]
